[
    {
        "CCSDS_OMM_VERS": "3.0",
        "COMMENT": "GENERATED VIA SPACE-TRACK.ORG API",
        "CREATION_DATE": "2025-05-04T02:26:54",
        "ORIGINATOR": "18 SPCS",
        "OBJECT_NAME": "BEIDOU 3M5",
        "OBJECT_ID": "2018-018A",
        "CENTER_NAME": "EARTH",
        "REF_FRAME": "TEME",
        "TIME_SYSTEM": "UTC",
        "MEAN_ELEMENT_THEORY": "SGP4",
        "EPOCH": "2025-05-03T12:06:48.573504",
        "MEAN_MOTION": "1.86231174",
        "ECCENTRICITY": "0.00076860",
        "INCLINATION": "56.2930",
        "RA_OF_ASC_NODE": "76.6944",
        "ARG_OF_PERICENTER": "355.1994",
        "MEAN_ANOMALY": "4.7628",
        "EPHEMERIS_TYPE": "0",
        "CLASSIFICATION_TYPE": "U",
        "NORAD_CAT_ID": "43207",
        "ELEMENT_SET_NO": "999",
        "REV_AT_EPOCH": "4911",
        "BSTAR": "0.00000000000000",
        "MEAN_MOTION_DOT": "-0.00000013",
        "MEAN_MOTION_DDOT": "0.0000000000000",
        "SEMIMAJOR_AXIS": "27906.171",
        "PERIOD": "773.233",
        "APOAPSIS": "21549.485",
        "PERIAPSIS": "21506.587",
        "OBJECT_TYPE": "PAYLOAD",
        "RCS_SIZE": "LARGE",
        "COUNTRY_CODE": "PRC",
        "LAUNCH_DATE": "2018-02-12",
        "SITE": "XSC",
        "DECAY_DATE": null,
        "FILE": "4718307",
        "GP_ID": "286799088",
        "TLE_LINE0": "0 BEIDOU 3M5",
        "TLE_LINE1": "1 43207U 18018A   25123.50472886 -.00000013  00000-0  00000-0 0  9992",
        "TLE_LINE2": "2 43207  56.2930  76.6944 0007686 355.1994   4.7628  1.86231174 49117"
    }
]